*******************************************************************************
 Revised: Sep 13, 2021     Spitzer Space Telescope (SST) / (Sun)            -79 
                              http://spitzer.caltech.edu/

 NOTE:
  - The final Spitzer science observations began 2020-Jan-28
  - On 2020-Jan-30, the mission was completed, the spacecraft decommissioned 
     and placed in a permanent storage mode.
  - The spacecraft will drift in its Earth trailing orbit until eventually 
     returning to the vicinity of Earth in ~2051.

 Spitzer Space Telescope 
  Launched: Aug 25, 2003
  Renamed : Dec 18, 2003 (formerly "SIRTF": Space Infrared Telescope Facility)

 EXTENDED MISSION (2009-present):
  Cryogen depletion occurred 2009-May-15. A 2-year extended "warm" mission 
  will continue operating the 3.6 and 4.5 micron channels on the IRAC 
  instrument with expected sensitivity unchanged from performance in the 
  cryogenic mission. The longer wavelength IRAC channels (5.6 and 8.0 microns) 
  and the MIPS and IRS instruments will be unavailable.

 PRIME MISSION (2003-2009):
  Spitzer will obtain images and spectra by detecting infrared (heat) energy, 
  having wavelengths of 3 and 180 microns, radiated by objects in space.  Most
  of this infrared radiation is blocked by the Earth's atmosphere and cannot be
  observed from the ground.  The telescope must be cooled to near absolute zero
  (-459 degrees F, or -273 degrees Celsius) to record infrared from distant 
  regions of space without interference from the telescope's own heat.

 SPACECRAFT:
  0.85-meter telescope 
  3 cryogenically-cooled science instruments
  2 solar panels composed of 392 solar cells, producing 427 Watts. 
  Each solar cell is 5.5 x 6.5 cm. Each panel is 50% covered by solar cells,
   and 50% covered by optical reflectors to reduce panel temp to 330 K.
  Spitzer cannot point more than 120 degrees away from the sun and maintain
   adequate power levels.

 SPACECRAFT TRAJECTORY:
   Trajectory was created 2020-Feb-07 11:45:41 and is based on 2-way 
   Doppler tracking data available up until the spacecraft was placed in 
   final safe mode at 2020-Jan-30 22:30 UTC. The trajectory after that 
   is a nominal long-term prediction.
*******************************************************************************


*******************************************************************************
Ephemeris / WWW_USER Wed Apr  9 13:33:03 2025 Pasadena, USA      / Horizons    
*******************************************************************************
Target body name: Spitzer Space Telescope (spacecraft) (-79) {source: SPITZER_merge_2003-2120}
Center body name: Earth (399)                     {source: SPITZER_merge_2003-2120}
Center-site name: GEOCENTRIC
*******************************************************************************
Start time      : A.D. 2010-Feb-01 00:00:00.0000 UT      
Stop  time      : A.D. 2015-Jan-01 00:00:00.0000 UT      
Step-size       : 60 minutes
*******************************************************************************
Target pole/equ : undefined
Target radii    : undefined                                                    
Center geodetic : 0.0, 0.0, -6378.137             {E-lon(deg),Lat(deg),Alt(km)}
Center cylindric: 0.0, 0.0, 0.0                   {E-lon(deg),Dxy(km),Dz(km)}
Center pole/equ : ITRF93                          {East-longitude positive}
Center radii    : 6378.137, 6378.137, 6356.752 km {Equator_a, b, pole_c}       
Target primary  : Earth
Vis. interferer : MOON (R_eq= 1737.400) km        {source: DE441}
Rel. light bend : Sun                             {source: SPITZER_merge_2003-2
Rel. lght bnd GM: 1.3271E+11 km^3/s^2                                          
Atmos refraction: NO (AIRLESS)
RA format       : HMS
Time format     : CAL 
Calendar mode   : Mixed Julian/Gregorian
EOP file        : eop.250408.p250705                                           
EOP coverage    : DATA-BASED 1962-JAN-20 TO 2025-APR-08. PREDICTS-> 2025-JUL-04
Units conversion: 1 au= 149597870.700 km, c= 299792.458 km/s, 1 day= 86400.0 s 
Table cut-offs 1: Elevation (-90.0deg=NO ),Airmass (>38.000=NO), Daylight (NO )
Table cut-offs 2: Solar elongation (  0.0,180.0=NO ),Local Hour Angle( 0.0=NO )
Table cut-offs 3: RA/DEC angular rate (     0.0=NO )                           
*******************************************************************************************
 Date__(UT)__HR:MN     R.A._____(ICRF)_____DEC             delta      deldot  1-way_down_LT
*******************************************************************************************
$$SOE
 2010-Sep-11 08:00     15 31 10.57 -19 27 20.4  0.83255552276417   0.6319701     6.92415314
 2010-Sep-11 09:00     15 31 20.74 -19 27 52.5  0.83257073907343   0.6325449     6.92427969
 2010-Sep-11 10:00     15 31 30.91 -19 28 24.7  0.83258596921031   0.6331192     6.92440636
 2010-Sep-11 11:00     15 31 41.07 -19 28 56.8  0.83260121316582   0.6336932     6.92453314
 2010-Sep-11 12:00     15 31 51.24 -19 29 28.8  0.83261647093134   0.6342669     6.92466003
 2010-Sep-11 13:00     15 32 01.42 -19 30 00.8  0.83263174249857   0.6348402     6.92478704
 2010-Sep-11 14:00     15 32 11.59 -19 30 32.8  0.83264702785947   0.6354132     6.92491417
 2010-Sep-11 15:00     15 32 21.76 -19 31 04.8  0.83266232700626   0.6359858     6.92504141
 2010-Sep-11 16:00     15 32 31.94 -19 31 36.7  0.83267763993153   0.6365582     6.92516876
 2010-Sep-11 17:00     15 32 42.11 -19 32 08.6  0.83269296662809   0.6371303     6.92529623
 2010-Sep-11 18:00     15 32 52.29 -19 32 40.4  0.83270830708912   0.6377021     6.92542381
 2010-Sep-11 19:00     15 33 02.47 -19 33 12.2  0.83272366130800   0.6382736     6.92555151
 2010-Sep-11 20:00     15 33 12.65 -19 33 44.0  0.83273902927844   0.6388449     6.92567932
 2010-Sep-11 21:00     15 33 22.83 -19 34 15.8  0.83275441099445   0.6394159     6.92580725
 2010-Sep-11 22:00     15 33 33.01 -19 34 47.5  0.83276980645040   0.6399867     6.92593529
 2010-Sep-11 23:00     15 33 43.19 -19 35 19.1  0.83278521564091   0.6405573     6.92606344
 2010-Sep-12 00:00     15 33 53.38 -19 35 50.8  0.83280063856082   0.6411276     6.92619171
 2010-Sep-12 01:00     15 34 03.56 -19 36 22.4  0.83281607520539   0.6416978     6.92632009
 2010-Sep-12 02:00     15 34 13.75 -19 36 53.9  0.83283152557002   0.6422678     6.92644859
 2010-Sep-12 03:00     15 34 23.93 -19 37 25.5  0.83284698965038   0.6428376     6.92657720
 2010-Sep-12 04:00     15 34 34.12 -19 37 57.0  0.83286246744239   0.6434073     6.92670593
 2010-Sep-12 05:00     15 34 44.31 -19 38 28.4  0.83287795894225   0.6439768     6.92683476
 2010-Sep-12 06:00     15 34 54.50 -19 38 59.8  0.83289346414644   0.6445462     6.92696372
 2010-Sep-12 07:00     15 35 04.70 -19 39 31.2  0.83290898305164   0.6451154     6.92709278
 2010-Sep-12 08:00     15 35 14.89 -19 40 02.6  0.83292451565483   0.6456845     6.92722196
 2010-Sep-12 09:00     15 35 25.08 -19 40 33.9  0.83294006195265   0.6462535     6.92735126
 2010-Sep-12 10:00     15 35 35.28 -19 41 05.2  0.83295562194234   0.6468223     6.92748067
 2010-Sep-12 11:00     15 35 45.48 -19 41 36.4  0.83297119562153   0.6473911     6.92761019
 2010-Sep-12 12:00     15 35 55.67 -19 42 07.6  0.83298678298854   0.6479598     6.92773983
 2010-Sep-12 13:00     15 36 05.87 -19 42 38.8  0.83300238404156   0.6485284     6.92786958
 2010-Sep-12 14:00     15 36 16.07 -19 43 09.9  0.83301799877895   0.6490970     6.92799944
 2010-Sep-12 15:00     15 36 26.27 -19 43 41.0  0.83303362719979   0.6496656     6.92812942
 2010-Sep-12 16:00     15 36 36.48 -19 44 12.1  0.83304926930308   0.6502341     6.92825951
 2010-Sep-12 17:00     15 36 46.68 -19 44 43.1  0.83306492508806   0.6508026     6.92838971
 2010-Sep-12 18:00     15 36 56.88 -19 45 14.1  0.83308059455422   0.6513710     6.92852003
 2010-Sep-12 19:00     15 37 07.09 -19 45 45.1  0.83309627770123   0.6519395     6.92865047
 2010-Sep-12 20:00     15 37 17.30 -19 46 16.0  0.83311197452913   0.6525079     6.92878101
 2010-Sep-12 21:00     15 37 27.50 -19 46 46.9  0.83312768503817   0.6530764     6.92891167
 2010-Sep-12 22:00     15 37 37.71 -19 47 17.7  0.83314340922871   0.6536449     6.92904245
 2010-Sep-12 23:00     15 37 47.92 -19 47 48.5  0.83315914710144   0.6542135     6.92917334
 2010-Sep-13 00:00     15 37 58.13 -19 48 19.3  0.83317489865717   0.6547820     6.92930434
 2010-Sep-13 01:00     15 38 08.35 -19 48 50.1  0.83319066389708   0.6553506     6.92943545
 2010-Sep-13 02:00     15 38 18.56 -19 49 20.8  0.83320644282244   0.6559193     6.92956668
 2010-Sep-13 03:00     15 38 28.78 -19 49 51.4  0.83322223543423   0.6564880     6.92969802
 2010-Sep-13 04:00     15 38 38.99 -19 50 22.1  0.83323804173403   0.6570568     6.92982948
 2010-Sep-13 05:00     15 38 49.21 -19 50 52.7  0.83325386172405   0.6576257     6.92996105
 2010-Sep-13 06:00     15 38 59.43 -19 51 23.2  0.83326969540677   0.6581947     6.93009274
 2010-Sep-13 07:00     15 39 09.65 -19 51 53.7  0.83328554278460   0.6587638     6.93022454
 2010-Sep-13 08:00     15 39 19.87 -19 52 24.2  0.83330140386029   0.6593331     6.93035645
 2010-Sep-13 09:00     15 39 30.09 -19 52 54.7  0.83331727863679   0.6599024     6.93048847
 2010-Sep-13 10:00     15 39 40.31 -19 53 25.1  0.83333316711708   0.6604719     6.93062062
 2010-Sep-13 11:00     15 39 50.53 -19 53 55.5  0.83334906930419   0.6610415     6.93075287
 2010-Sep-13 12:00     15 40 00.76 -19 54 25.8  0.83336498520110   0.6616112     6.93088524
 2010-Sep-13 13:00     15 40 10.98 -19 54 56.1  0.83338091481127   0.6621811     6.93101772
 2010-Sep-13 14:00     15 40 21.21 -19 55 26.4  0.83339685813849   0.6627511     6.93115032
 2010-Sep-13 15:00     15 40 31.44 -19 55 56.6  0.83341281518663   0.6633213     6.93128303
 2010-Sep-13 16:00     15 40 41.67 -19 56 26.8  0.83342878595977   0.6638917     6.93141585
 2010-Sep-13 17:00     15 40 51.90 -19 56 57.0  0.83344477046218   0.6644623     6.93154879
